NORAD_CAT_ID,OBJECT_NAME,OBJECT_TYPE,EPOCH,MEAN_MOTION,ECCENTRICITY,INCLINATION,RA_OF_ASC_NODE,ARG_OF_PERICENTER,MEAN_ANOMALY,BSTAR,MEAN_MOTION_DOT,MEAN_MOTION_DDOT,TLE_LINE0,TLE_LINE1,TLE_LINE2,SEMIMAJOR_AXIS,PERIOD,APOGEE,PERIGEE,DECAYED
51126.0,STARLINK-3386,PAYLOAD,2023-01-25 18:12:55,15.08844314,0.0001514,53.2158,11.9824,119.5713,240.543,0.00016998,2.419e-05,0.0,0 STARLINK-3386,1 51126U 22005Y   23025.75897832  .00002419  00000-0  16998-3 0  9997,2 51126  53.2158  11.9824 0001514 119.5713 240.5430 15.08844314 57912,6917.866999999999,95.437,540.78,538.685,0.0
51126.0,STARLINK-3386,PAYLOAD,2023-01-26 08:31:23,15.0885568,0.0001503,53.2162,9.3078,107.5821,252.5335,0.00034346,5.185e-05,0.0,0 STARLINK-3386,1 51126U 22005Y   23026.35513559  .00005185  00000-0  34346-3 0  9995,2 51126  53.2162   9.3078 0001503 107.5821 252.5335 15.08855680 56895,6917.831999999999,95.437,540.737,538.658,0.0
51126.0,STARLINK-3386,PAYLOAD,2023-01-27 05:11:24,15.08845207,0.0001385999999999,53.2164,5.4415,113.6921,246.4217,0.00019028,2.742e-05,0.0,0 STARLINK-3386,1 51126U 22005Y   23027.21625780  .00002742  00000-0  19028-3 0  9997,2 51126  53.2164   5.4415 0001386 113.6921 246.4217 15.08845207 58131,6917.8640000000005,95.437,540.688,538.771,0.0
51126.0,STARLINK-3386,PAYLOAD,2023-01-27 06:46:47,15.08844215,0.0001426,53.2166,5.1451,111.607,248.5074,0.00027338,4.066e-05,0.0,0 STARLINK-3386,1 51126U 22005Y   23027.28249836  .00004066  00000-0  27338-3 0  9992,2 51126  53.2166   5.1451 0001426 111.6070 248.5074 15.08844215 57038,6917.868,95.437,540.719,538.746,0.0
51126.0,STARLINK-3386,PAYLOAD,2023-01-28 01:51:25,15.08837682,0.0001851999999999,53.2173,1.5777,122.1752,237.942,7.7102e-05,9.39e-06,0.0,0 STARLINK-3386,1 51126U 22005Y   23028.07738232  .00000939  00000-0  77102-4 0  9993,2 51126  53.2173   1.5777 0001852 122.1752 237.9420 15.08837682 58267,6917.887,95.438,541.034,538.471,0.0
51126.0,STARLINK-3386,PAYLOAD,2023-01-28 08:12:58,15.08842597,0.0001361,53.2169,0.3874,109.7521,250.3619,0.00024149,3.558e-05,0.0,0 STARLINK-3386,1 51126U 22005Y   23028.34234203  .00003558  00000-0  24149-3 0  9994,2 51126  53.2169   0.3874 0001361 109.7521 250.3619 15.08842597 57198,6917.872,95.437,540.679,538.796,0.0
51126.0,STARLINK-3386,PAYLOAD,2023-01-28 22:31:28,15.08815013,0.0001637,53.2157,357.7094,114.1783,245.938,-0.00017196,-3.022e-05,0.0,0 STARLINK-3386,1 51126U 22005Y   23028.93851860 -.00003022  00000-0 -17196-3 0  9995,2 51126  53.2157 357.7094 0001637 114.1783 245.9380 15.08815013 57282,6917.957,95.439,540.954,538.689,0.0
51126.0,STARLINK-3386,PAYLOAD,2023-01-29 06:28:23,15.08827639,0.0001399,53.2165,356.2256,106.4686,253.646,0.00053117,8.173e-05,0.0,0 STARLINK-3386,1 51126U 22005Y   23029.26972174  .00008173  00000-0  53117-3 0  9997,2 51126  53.2165 356.2256 0001399 106.4686 253.6460 15.08827639 58447,6917.918,95.438,540.751,538.815,0.0
51126.0,STARLINK-3386,PAYLOAD,2023-01-29 22:22:15,15.08858278,0.0001314,53.2162,353.2512,102.6834,257.4305,0.0013327,0.00020996,0.0,0 STARLINK-3386,1 51126U 22005Y   23029.93212065  .00020996  00000-0  13327-2 0  9992,2 51126  53.2162 353.2512 0001314 102.6834 257.4305 15.08858278 57437,6917.825,95.436,540.599,538.781,0.0
51126.0,STARLINK-3386,PAYLOAD,2023-01-30 06:19:10,15.08875871,0.0001295,53.2158,351.7647,102.3025,257.8112,0.001406,0.00022181,0.0,0 STARLINK-3386,1 51126U 22005Y   23030.26331370  .00022181  00000-0  14060-2 0  9994,2 51126  53.2158 351.7647 0001295 102.3025 257.8112 15.08875871 58597,6917.771,95.435,540.532,538.74,0.0
51126.0,STARLINK-3386,PAYLOAD,2023-01-30 07:54:33,15.08879018,0.0001291,53.2157,351.4673,102.5502,257.5635,0.0014036,0.00022145,0.0,0 STARLINK-3386,1 51126U 22005Y   23030.32955194  .00022145  00000-0  14036-2 0  9990,2 51126  53.2157 351.4673 0001291 102.5502 257.5635 15.08879018 57492,6917.761,95.435,540.519,538.733,0.0
51126.0,STARLINK-3386,PAYLOAD,2023-01-30 22:13:01,15.0886617,0.0001501,53.2156,348.7902,110.2003,249.9151,0.00086206,0.00013468,0.0,0 STARLINK-3386,1 51126U 22005Y   23030.92570705  .00013468  00000-0  86206-3 0  9994,2 51126  53.2156 348.7902 0001501 110.2003 249.9151 15.08866170 57584,6917.8,95.436,540.704,538.627,0.0
51126.0,STARLINK-3386,PAYLOAD,2023-01-31 06:09:56,15.08866184,0.0001206,53.2154,347.3039,109.5655,250.5468,0.0011354,0.00017841,0.0,0 STARLINK-3386,1 51126U 22005Y   23031.25690294  .00017841  00000-0  11354-2 0  9997,2 51126  53.2154 347.3039 0001206 109.5655 250.5468 15.08866184 58747,6917.8,95.436,540.5,538.831,0.0
51126.0,STARLINK-3386,PAYLOAD,2023-01-31 07:45:19,15.08869059,0.000123,53.216,347.0058,96.5041,263.6091,0.0007431,0.00011568,0.0,0 STARLINK-3386,1 51126U 22005Y   23031.32314189  .00011568  00000-0  74310-3 0  9993,2 51126  53.2160 347.0058 0001230  96.5041 263.6091 15.08869059 57642,6917.792,95.436,540.507,538.806,0.0
51126.0,STARLINK-3386,PAYLOAD,2023-01-31 20:28:24,15.08853004,0.0001712,53.2144,344.6258,90.344,269.7749,0.0006984,0.00010848,0.0,0 STARLINK-3386,1 51126U 22005Y   23031.85306486  .00010848  00000-0  69840-3 0  9994,2 51126  53.2144 344.6258 0001712  90.3440 269.7749 15.08853004 57728,6917.841,95.437,540.89,538.521,0.0
51126.0,STARLINK-3386,PAYLOAD,2023-02-01 02:49:57,15.08851721,0.0001438,53.2148,343.4359,98.9003,261.2152,0.00069937,0.00010864,0.0,0 STARLINK-3386,1 51126U 22005Y   23032.11802341  .00010864  00000-0  69937-3 0  9990,2 51126  53.2148 343.4359 0001438  98.9003 261.2152 15.08851721 58871,6917.845,95.437,540.704,538.715,0.0
51126.0,STARLINK-3386,PAYLOAD,2023-02-01 06:00:43,15.08855716,0.0001331,53.2151,342.8414,94.7435,265.3709,0.0007489,0.00011656,0.0,0 STARLINK-3386,1 51126U 22005Y   23032.25050189  .00011656  00000-0  74890-3 0  9994,2 51126  53.2151 342.8414 0001331  94.7435 265.3709 15.08855716 57785,6917.832,95.437,540.618,538.777,0.0
51126.0,STARLINK-3386,PAYLOAD,2023-02-02 02:40:44,15.0885103,0.0001265,53.216,338.977,91.9613,268.1524,0.00096896,0.00015171,0.0,0 STARLINK-3386,1 51126U 22005Y   23033.11162464  .00015171  00000-0  96896-3 0  9996,2 51126  53.2160 338.9770 0001265  91.9613 268.1524 15.08851030 59029,6917.847,95.437,540.587,538.837,0.0
51126.0,STARLINK-3386,PAYLOAD,2023-02-02 05:51:30,15.08864307,0.000124,53.2161,338.3822,90.2772,269.8363,0.0013397,0.00021112,0.0,0 STARLINK-3386,1 51126U 22005Y   23033.24410227  .00021112  00000-0  13397-2 0  9999,2 51126  53.2161 338.3822 0001240  90.2772 269.8363 15.08864307 57931,6917.806,95.436,540.529,538.813,0.0
51126.0,STARLINK-3386,PAYLOAD,2023-02-03 05:42:17,15.08855951,0.0001232,53.2151,333.9211,92.162,267.9514,0.00048775,7.486e-05,0.0,0 STARLINK-3386,1 51126U 22005Y   23034.23769830  .00007486  00000-0  48775-3 0  9993,2 51126  53.2151 333.9211 0001232  92.1620 267.9514 15.08855951 59199,6917.832,95.437,540.549,538.844,0.0
51126.0,STARLINK-3386,PAYLOAD,2023-02-03 20:00:45,15.08840083,0.0001684,53.2152,331.245,87.3174,272.801,3.2282e-05,2.26e-06,0.0,0 STARLINK-3386,1 51126U 22005Y   23034.83386326  .00000226  00000-0  32282-4 0  9996,2 51126  53.2152 331.2450 0001684  87.3174 272.8010 15.08840083 59283,6917.88,95.438,540.91,538.58,0.0
51126.0,STARLINK-3386,PAYLOAD,2023-02-04 05:33:04,15.08840644,0.0001234,53.216,329.4611,80.2947,279.8184,5.6008e-05,6.04e-06,0.0,0 STARLINK-3386,1 51126U 22005Y   23035.23130406  .00000604  00000-0  56008-4 0  9999,2 51126  53.2160 329.4611 0001234  80.2947 279.8184 15.08840644 58237,6917.878,95.438,540.597,538.89,0.0
51126.0,STARLINK-3386,PAYLOAD,2023-02-05 02:13:05,15.08851057,0.0001198,53.2165,325.5954,77.8082,282.3044,0.00023081,3.388e-05,0.0,0 STARLINK-3386,1 51126U 22005Y   23036.09242011  .00003388  00000-0  23081-3 0  9996,2 51126  53.2165 325.5954 0001198  77.8082 282.3044 15.08851057 59471,6917.847,95.437,540.54,538.883,0.0
51126.0,STARLINK-3386,PAYLOAD,2023-02-05 05:23:51,15.08856592,0.0001209,53.2167,325.0006,78.6123,281.5005,0.00025103,3.711e-05,0.0,0 STARLINK-3386,1 51126U 22005Y   23036.22489747  .00003711  00000-0  25103-3 0  9997,2 51126  53.2167 325.0006 0001209  78.6123 281.5005 15.08856592 58380,6917.83,95.437,540.531,538.858,0.0
51126.0,STARLINK-3386,PAYLOAD,2023-02-05 19:42:20,15.08836298,0.0001211,53.2168,322.3243,88.1494,271.9637,2.7102e-05,1.43e-06,0.0,0 STARLINK-3386,1 51126U 22005Y   23036.82106719  .00000143  00000-0  27102-4 0  9996,2 51126  53.2168 322.3243 0001211  88.1494 271.9637 15.08836298 59582,6917.892,95.438,540.594,538.919,0.0
51126.0,STARLINK-3386,PAYLOAD,2023-02-06 05:14:38,15.08849552,0.0001232,53.2165,320.5406,92.6411,267.4722,0.00044085,6.737e-05,0.0,0 STARLINK-3386,1 51126U 22005Y   23037.21850427  .00006737  00000-0  44085-3 0  9995,2 51126  53.2165 320.5406 0001232  92.6411 267.4722 15.08849552 59641,6917.851,95.437,540.568,538.864,0.0
51126.0,STARLINK-3386,PAYLOAD,2023-02-06 19:33:07,15.08846184,0.0001249,53.216,317.8649,98.6291,261.4842,0.00054151,8.342e-05,0.0,0 STARLINK-3386,1 51126U 22005Y   23037.81466630  .00008342  00000-0  54151-3 0  9999,2 51126  53.2160 317.8649 0001249  98.6291 261.4842 15.08846184 59739,6917.861,95.437,540.591,538.862,0.0
51126.0,STARLINK-3386,PAYLOAD,2023-02-07 03:30:02,15.08863614,0.0001272,53.2158,316.3782,102.0349,258.0785,0.00097653,0.00015298,0.0,0 STARLINK-3386,1 51126U 22005Y   23038.14586113  .00015298  00000-0  97653-3 0  9997,2 51126  53.2158 316.3782 0001272 102.0349 258.0785 15.08863614 59788,6917.808,95.436,540.553,538.793,0.0
51126.0,STARLINK-3386,PAYLOAD,2023-02-07 19:23:53,15.08846303,0.0001195,53.2153,313.4045,72.4788,287.6334,0.0003037,4.55e-05,0.0,0 STARLINK-3386,1 51126U 22005Y   23038.80826374  .00004550  00000-0  30370-3 0  9998,2 51126  53.2153 313.4045 0001195  72.4788 287.6334 15.08846303 59889,6917.861,95.437,540.553,538.899,0.0
51126.0,STARLINK-3386,PAYLOAD,2023-02-08 03:20:49,15.08853557,0.0001308,53.2154,311.9175,71.3418,288.7716,0.00044855,6.861e-05,0.0,0 STARLINK-3386,1 51126U 22005Y   23039.13946154  .00006861  00000-0  44855-3 0  9994,2 51126  53.2154 311.9175 0001308  71.3418 288.7716 15.08853557 58829,6917.839,95.437,540.609,538.799,0.0
